{
    "links": {
        "self": "http://www.neowsapp.com/rest/v1/neo/3606221?api_key=iIulBulltgU6a56xZRHN4H3l9WmuAYTsLGpBGhQ2"
    },
    "id": "3606221",
    "neo_reference_id": "3606221",
    "name": "(2012 NO)",
    "designation": "2012 NO",
    "nasa_jpl_url": "http://ssd.jpl.nasa.gov/sbdb.cgi?sstr=3606221",
    "absolute_magnitude_h": 20.1,
    "estimated_diameter": {
        "kilometers": {
            "estimated_diameter_min": 0.2538370294,
            "estimated_diameter_max": 0.5675968529
        },
        "meters": {
            "estimated_diameter_min": 253.8370293645,
            "estimated_diameter_max": 567.5968528656
        },
        "miles": {
            "estimated_diameter_min": 0.1577269688,
            "estimated_diameter_max": 0.3526882241
        },
        "feet": {
            "estimated_diameter_min": 832.7986794202,
            "estimated_diameter_max": 1862.1944587557
        }
    },
    "is_potentially_hazardous_asteroid": false,
    "close_approach_data": [
        {
            "close_approach_date": "2005-07-20",
            "close_approach_date_full": "2005-Jul-20 12:37",
            "epoch_date_close_approach": 1121863020000,
            "relative_velocity": {
                "kilometers_per_second": "20.8466521244",
                "kilometers_per_hour": "75047.9476478447",
                "miles_per_hour": "46631.8761370733"
            },
            "miss_distance": {
                "astronomical": "0.3565534742",
                "lunar": "138.6993014638",
                "kilometers": "53339640.281419954",
                "miles": "33143715.5763612052"
            },
            "orbiting_body": "Earth"
        },
        {
            "close_approach_date": "2010-02-01",
            "close_approach_date_full": "2010-Feb-01 07:03",
            "epoch_date_close_approach": 1265007780000,
            "relative_velocity": {
                "kilometers_per_second": "32.9178598046",
                "kilometers_per_hour": "118504.2952966381",
                "miles_per_hour": "73633.9605969583"
            },
            "miss_distance": {
                "astronomical": "0.3712245293",
                "lunar": "144.4063418977",
                "kilometers": "55534398.875032591",
                "miles": "34507475.3280521158"
            },
            "orbiting_body": "Earth"
        },
        {
            "close_approach_date": "2012-07-17",
            "close_approach_date_full": "2012-Jul-17 03:36",
            "epoch_date_close_approach": 1342496160000,
            "relative_velocity": {
                "kilometers_per_second": "24.8614583425",
                "kilometers_per_hour": "89501.2500329032",
                "miles_per_hour": "55612.5961662781"
            },
            "miss_distance": {
                "astronomical": "0.21083829",
                "lunar": "82.01609481",
                "kilometers": "31540959.0984423",
                "miles": "19598643.18261174"
            },
            "orbiting_body": "Earth"
        },
        {
            "close_approach_date": "2017-01-09",
            "close_approach_date_full": "2017-Jan-09 05:32",
            "epoch_date_close_approach": 1483939920000,
            "relative_velocity": {
                "kilometers_per_second": "26.1022727173",
                "kilometers_per_hour": "93968.1817821338",
                "miles_per_hour": "58388.1738412376"
            },
            "miss_distance": {
                "astronomical": "0.1371506589",
                "lunar": "53.3516063121",
                "kilometers": "20517446.440536543",
                "miles": "12748950.0414805734"
            },
            "orbiting_body": "Earth"
        },
        {
            "close_approach_date": "2023-07-20",
            "close_approach_date_full": "2023-Jul-20 05:53",
            "epoch_date_close_approach": 1689832380000,
            "relative_velocity": {
                "kilometers_per_second": "20.5404697699",
                "kilometers_per_hour": "73945.6911716292",
                "miles_per_hour": "45946.9768282826"
            },
            "miss_distance": {
                "astronomical": "0.4248284724",
                "lunar": "165.2582757636",
                "kilometers": "63553434.586393788",
                "miles": "39490273.0636907544"
            },
            "orbiting_body": "Earth"
        }
    ],
    "orbital_data": {
        "orbit_id": "21",
        "orbit_determination_date": "2017-04-06 08:49:25",
        "first_observation_date": "2012-07-13",
        "last_observation_date": "2012-08-06",
        "data_arc_in_days": 24,
        "observations_used": 141,
        "orbit_uncertainty": "7",
        "minimum_orbit_intersection": ".119486",
        "jupiter_tisserand_invariant": "4.826",
        "epoch_osculation": "2459000.5",
        "eccentricity": ".425029225914173",
        "semi_major_axis": "1.242982947485438",
        "inclination": "43.68391002545479",
        "ascending_node_longitude": "289.5852078094501",
        "orbital_period": "506.1697449888098",
        "perihelion_distance": ".714678867491185",
        "perihelion_argument": "117.1828067697432",
        "aphelion_distance": "1.771287027479691",
        "perihelion_time": "2459241.149172973245",
        "mean_anomaly": "188.8445662190193",
        "mean_motion": ".7112238603039357",
        "equinox": "J2000",
        "orbit_class": {
            "orbit_class_type": "APO",
            "orbit_class_description": "Near-Earth asteroid orbits which cross the Earth’s orbit similar to that of 1862 Apollo",
            "orbit_class_range": "a (semi-major axis) > 1.0 AU; q (perihelion) < 1.017 AU"
        }
    },
    "is_sentry_object": false
}